NORAD_CAT_ID,OBJECT_NAME,OBJECT_TYPE,EPOCH,MEAN_MOTION,ECCENTRICITY,INCLINATION,RA_OF_ASC_NODE,ARG_OF_PERICENTER,MEAN_ANOMALY,BSTAR,MEAN_MOTION_DOT,MEAN_MOTION_DDOT,TLE_LINE0,TLE_LINE1,TLE_LINE2,SEMIMAJOR_AXIS,PERIOD,APOGEE,PERIGEE,DECAYED
51959.0,STARLINK-3704,PAYLOAD,2023-05-11 21:42:43,15.04768403,0.0001131,53.1168,347.0762,95.169,264.9428,-1.9496e-05,-5.55e-06,0.0,0 STARLINK-3704,1 51959U 22025D   23131.90466661 -.00000555  00000-0 -19496-4 0  9998,2 51959  53.1168 347.0762 0001131  95.1690 264.9428 15.04768403 65251,6930.354,95.696,553.003,551.435,0.0
51959.0,STARLINK-3704,PAYLOAD,2023-05-12 18:26:04,15.04782251,0.0001095,53.1161,343.215,97.9901,262.1212,0.00041919,5.706e-05,0.0,0 STARLINK-3704,1 51959U 22025D   23132.76810997  .00005706  00000-0  41919-3 0  9993,2 51959  53.1161 343.2150 0001095  97.9901 262.1212 15.04782251 65389,6930.311,95.695,552.935,551.417,0.0
51959.0,STARLINK-3704,PAYLOAD,2023-05-12 21:37:21,15.04783453,0.0001087,53.1155,342.6227,92.122,267.9893,0.00047651,6.525e-05,0.0,0 STARLINK-3704,1 51959U 22025D   23132.90094769  .00006525  00000-0  47651-3 0  9999,2 51959  53.1155 342.6227 0001087  92.1220 267.9893 15.04783453 66498,6930.307,95.695,552.926,551.419,0.0
51959.0,STARLINK-3704,PAYLOAD,2023-05-13 19:56:21,15.04784112,0.0001043,53.114,338.467,83.068,277.0427,-0.00035757,-5.372e-05,0.0,0 STARLINK-3704,1 51959U 22025D   23133.83080696 -.00005372  00000-0 -35757-3 0  9991,2 51959  53.1140 338.4670 0001043  83.0680 277.0427 15.04784112 65541,6930.305,95.695,552.893,551.448,0.0
51959.0,STARLINK-3704,PAYLOAD,2023-05-14 19:51:00,15.04774466,0.0001097,53.1131,334.0129,85.9026,274.2088,8.8477e-05,9.85e-06,0.0,0 STARLINK-3704,1 51959U 22025D   23134.82709480  .00000985  00000-0  88477-4 0  9991,2 51959  53.1131 334.0129 0001097  85.9026 274.2088 15.04774466 65695,6930.335,95.695,552.96,551.44,0.0
51959.0,STARLINK-3704,PAYLOAD,2023-05-14 23:02:18,15.04775379,0.0001099,53.1132,333.4179,89.1441,270.9674,9.627e-05,1.096e-05,0.0,0 STARLINK-3704,1 51959U 22025D   23134.95993147  .00001096  00000-0  96270-4 0  9994,2 51959  53.1132 333.4179 0001099  89.1441 270.9674 15.04775379 66805,6930.332,95.695,552.959,551.436,0.0
51959.0,STARLINK-3704,PAYLOAD,2023-05-15 13:23:05,15.04773884,0.0001085,53.1122,330.7442,89.0855,271.0258,0.00014802,1.834e-05,0.0,0 STARLINK-3704,1 51959U 22025D   23135.55770075  .00001834  00000-0  14802-3 0  9994,2 51959  53.1122 330.7442 0001085  89.0855 271.0258 15.04773884 65808,6930.337,95.695,552.954,551.45,0.0
51959.0,STARLINK-3704,PAYLOAD,2023-05-15 19:45:39,15.04770861,0.0001061,53.1131,329.5555,90.2553,269.8557,0.00010107,1.164e-05,0.0,0 STARLINK-3704,1 51959U 22025D   23135.82337763  .00001164  00000-0  10107-3 0  9997,2 51959  53.1131 329.5555 0001061  90.2553 269.8557 15.04770861 65845,6930.346,95.696,552.946,551.476,0.0
51959.0,STARLINK-3704,PAYLOAD,2023-05-16 05:19:31,15.04771953,0.0001052,53.1131,327.7734,89.1502,270.9607,9.778e-05,1.117e-05,0.0,0 STARLINK-3704,1 51959U 22025D   23136.22189035  .00001117  00000-0  97780-4 0  9990,2 51959  53.1131 327.7734 0001052  89.1502 270.9607 15.04771953 66994,6930.343,95.696,552.937,551.479,0.0
51959.0,STARLINK-3704,PAYLOAD,2023-05-16 13:17:44,15.04768742,0.0001138,53.1132,326.2887,91.3632,268.7487,5.2373e-05,4.7e-06,0.0,0 STARLINK-3704,1 51959U 22025D   23136.55398738  .00000470  00000-0  52373-4 0  9998,2 51959  53.1132 326.2887 0001138  91.3632 268.7487 15.04768742 65950,6930.353,95.696,553.006,551.429,0.0
51959.0,STARLINK-3704,PAYLOAD,2023-05-16 19:40:18,15.04772913,0.0001167,53.1129,325.1018,93.5396,266.5727,8.3738e-05,9.17e-06,0.0,0 STARLINK-3704,1 51959U 22025D   23136.81965925  .00000917  00000-0  83738-4 0  9990,2 51959  53.1129 325.1018 0001167  93.5396 266.5727 15.04772913 65995,6930.34,95.696,553.014,551.396,0.0
51959.0,STARLINK-3704,PAYLOAD,2023-05-17 02:02:53,15.04765498,0.0001093,53.1094,323.9126,80.0937,280.0175,-2.2e-05,-5.9e-06,0.0,0 STARLINK-3704,1 51959U 22025D   23137.08534084 -.00000590  00000-0 -22000-4 0  9992,2 51959  53.1094 323.9126 0001093  80.0937 280.0175 15.04765498 67127,6930.363,95.696,552.985,551.47,0.0
51959.0,STARLINK-3704,PAYLOAD,2023-05-17 19:34:57,15.04766829,0.0001189,53.1086,320.6448,92.3641,267.7484,6.7908e-05,6.91e-06,0.0,0 STARLINK-3704,1 51959U 22025D   23137.81594531  .00000691  00000-0  67908-4 0  9992,2 51959  53.1086 320.6448 0001189  92.3641 267.7484 15.04766829 66148,6930.359,95.696,553.048,551.399,0.0
51959.0,STARLINK-3704,PAYLOAD,2023-05-18 00:21:53,15.04771176,0.0001188,53.1085,319.754,96.8616,263.2508,0.0001135,1.342e-05,0.0,0 STARLINK-3704,1 51959U 22025D   23138.01519924  .00001342  00000-0  11350-3 0  9991,2 51959  53.1085 319.7540 0001188  96.8616 263.2508 15.04771176 67262,6930.345,95.696,553.033,551.387,0.0
51959.0,STARLINK-3704,PAYLOAD,2023-05-18 11:31:23,15.04770713,0.0001245,53.1085,317.6747,93.6785,266.4346,8.5854e-05,9.47e-06,0.0,0 STARLINK-3704,1 51959U 22025D   23138.48013277  .00000947  00000-0  85854-4 0  9993,2 51959  53.1085 317.6747 0001245  93.6785 266.4346 15.04770713 66242,6930.347,95.696,553.074,551.349,0.0
51959.0,STARLINK-3704,PAYLOAD,2023-05-19 05:03:27,15.04786113,0.0001141,53.1085,314.4072,96.7212,263.3907,-0.00010274,-1.742e-05,0.0,0 STARLINK-3704,1 51959U 22025D   23139.21073226 -.00001742  00000-0 -10274-3 0  9994,2 51959  53.1085 314.4072 0001141  96.7212 263.3907 15.04786113 67445,6930.299,95.695,552.955,551.374,0.0
51959.0,STARLINK-3704,PAYLOAD,2023-05-19 17:48:36,15.04772814,0.0001077,53.1085,312.0311,90.0756,270.0357,0.00010889,1.276e-05,0.0,0 STARLINK-3704,1 51959U 22025D   23139.74208873  .00001276  00000-0  10889-3 0  9992,2 51959  53.1085 312.0311 0001077  90.0756 270.0357 15.04772814 67529,6930.34,95.696,552.952,551.459,0.0
51959.0,STARLINK-3704,PAYLOAD,2023-05-20 17:43:14,15.04779814,0.0001041,53.1052,307.5735,92.1211,267.9898,0.00019973,2.572e-05,0.0,0 STARLINK-3704,1 51959U 22025D   23140.73836553  .00002572  00000-0  19973-3 0  9998,2 51959  53.1052 307.5735 0001041  92.1211 267.9898 15.04779814 66589,6930.319,95.695,552.905,551.462,0.0
51959.0,STARLINK-3704,PAYLOAD,2023-05-21 11:15:19,15.04770366,0.0001076,53.1053,304.3053,95.4669,264.6442,1.3609e-05,-8.3e-07,0.0,0 STARLINK-3704,1 51959U 22025D   23141.46897748 -.00000083  00000-0  13609-4 0  9999,2 51959  53.1053 304.3053 0001076  95.4669 264.6442 15.04770366 66693,6930.348,95.696,552.958,551.467,0.0
51959.0,STARLINK-3704,PAYLOAD,2023-05-21 17:37:53,15.04770764,0.0001252,53.1029,303.1167,96.758,263.3552,-4.8478e-05,-9.68e-06,0.0,0 STARLINK-3704,1 51959U 22025D   23141.73465256 -.00000968  00000-0 -48478-4 0  9999,2 51959  53.1029 303.1167 0001252  96.7580 263.3552 15.04770764 67827,6930.346,95.696,553.079,551.344,0.0
51959.0,STARLINK-3704,PAYLOAD,2023-05-21 20:49:11,15.04763009,0.0001312,53.1023,302.5241,92.9184,267.1955,0.00026732,3.535e-05,0.0,0 STARLINK-3704,1 51959U 22025D   23141.86749507  .00003535  00000-0  26732-3 0  9996,2 51959  53.1023 302.5241 0001312  92.9184 267.1955 15.04763009 66756,6930.37,95.696,553.145,551.326,0.0
51959.0,STARLINK-3704,PAYLOAD,2023-05-22 11:09:58,15.04777971,9.79e-05,53.1033,299.8498,102.5132,257.5966,0.00012363,1.486e-05,0.0,0 STARLINK-3704,1 51959U 22025D   23142.46525478  .00001486  00000-0  12363-3 0  9990,2 51959  53.1033 299.8498 0000979 102.5132 257.5966 15.04777971 66846,6930.324,95.695,552.868,551.511,0.0
51959.0,STARLINK-3704,PAYLOAD,2023-05-22 17:32:32,15.04773766,0.0001074,53.1029,298.6624,91.6242,268.487,6.6606e-05,6.73e-06,0.0,0 STARLINK-3704,1 51959U 22025D   23142.73093255  .00000673  00000-0  66606-4 0  9990,2 51959  53.1029 298.6624 0001074  91.6242 268.4870 15.04773766 66883,6930.337,95.695,552.947,551.458,0.0
51959.0,STARLINK-3704,PAYLOAD,2023-05-23 11:04:37,15.04768242,0.0001059,53.1008,295.395,97.6689,262.4421,0.00014406,1.777e-05,0.0,0 STARLINK-3704,1 51959U 22025D   23143.46154498  .00001777  00000-0  14406-3 0  9994,2 51959  53.1008 295.3950 0001059  97.6689 262.4421 15.04768242 68083,6930.354,95.696,552.953,551.485,0.0
51959.0,STARLINK-3704,PAYLOAD,2023-05-23 17:27:11,15.04772246,0.0001083,53.1007,294.2068,98.1233,261.9879,0.00019616,2.521e-05,0.0,0 STARLINK-3704,1 51959U 22025D   23143.72721896  .00002521  00000-0  19616-3 0  9991,2 51959  53.1007 294.2068 0001083  98.1233 261.9879 15.04772246 67032,6930.342,95.696,552.957,551.456,0.0
51959.0,STARLINK-3704,PAYLOAD,2023-05-24 15:46:12,15.04768233,0.0001042,53.0989,290.0463,82.7331,277.3776,0.00012561,1.514e-05,0.0,0 STARLINK-3704,1 51959U 22025D   23144.65708499  .00001514  00000-0  12561-3 0  9991,2 51959  53.0989 290.0463 0001042  82.7331 277.3776 15.04768233 68260,6930.354,95.696,552.941,551.497,0.0
51959.0,STARLINK-3704,PAYLOAD,2023-05-25 14:05:11,15.04776417,0.0001143,53.0988,285.8876,81.1646,278.9473,0.00014115,1.736e-05,0.0,0 STARLINK-3704,1 51959U 22025D   23145.58694427  .00001736  00000-0  14115-3 0  9992,2 51959  53.0988 285.8876 0001143  81.1646 278.9473 15.04776417 67312,6930.329,95.695,552.986,551.402,0.0
51959.0,STARLINK-3704,PAYLOAD,2023-05-25 15:40:50,15.04776284,0.0001136,53.0985,285.5905,81.0719,279.0398,0.00013374,1.63e-05,0.0,0 STARLINK-3704,1 51959U 22025D   23145.65336290  .00001630  00000-0  13374-3 0  9990,2 51959  53.0985 285.5905 0001136  81.0719 279.0398 15.04776284 67322,6930.329,95.695,552.982,551.407,0.0
51959.0,STARLINK-3704,PAYLOAD,2023-05-26 09:12:54,15.04774655,0.0001059,53.0977,282.3223,80.8664,279.2444,0.00016833,2.124e-05,0.0,0 STARLINK-3704,1 51959U 22025D   23146.38396893  .00002124  00000-0  16833-3 0  9998,2 51959  53.0977 282.3223 0001059  80.8664 279.2444 15.04774655 68528,6930.334,95.695,552.933,551.466,0.0
51959.0,STARLINK-3704,PAYLOAD,2023-05-26 13:59:50,15.04766708,9.83e-05,53.0975,281.4299,83.0579,277.0521,3.2611e-05,1.88e-06,0.0,0 STARLINK-3704,1 51959U 22025D   23146.58322902  .00000188  00000-0  32611-4 0  9991,2 51959  53.0975 281.4299 0000983  83.0579 277.0521 15.04766708 67468,6930.359,95.696,552.905,551.543,0.0
